OBJECT_NAME,OBJECT_ID,EPOCH,MEAN_MOTION,ECCENTRICITY,INCLINATION,RA_OF_ASC_NODE,ARG_OF_PERICENTER,MEAN_ANOMALY,EPHEMERIS_TYPE,CLASSIFICATION_TYPE,NORAD_CAT_ID,ELEMENT_SET_NO,REV_AT_EPOCH,BSTAR,MEAN_MOTION_DOT,MEAN_MOTION_DDOT
OCEANSAT-2,2009-051A,2026-07-11T03:32:13.395264,13.99656669,.0017081,98.2318,176.6068,165.2051,194.9619,0,U,35931,999,88268,-.72266E-4,-.143E-5,0
WORLDVIEW-2 (WV-2),2009-055A,2026-07-11T04:06:08.689824,14.37906299,.0005143,98.4757,265.2939,139.5614,220.5957,0,U,35946,999,87909,.30005E-4,.47E-6,0
SMOS,2009-059A,2026-07-09T23:37:06.144096,14.39733948,.00011405,98.4429,17.9851,95.2282,264.9037,0,U,36036,999,87673,.61817664E-4,.15E-5,0
YAOGAN-7,2009-069A,2026-07-08T14:48:32.591232,14.78031471,.00239353,98.0044,75.3492,333.3807,26.6172,0,U,36110,999,89279,.54067378E-4,.339E-5,0
TANDEM-X,2010-030A,2026-07-07T11:29:58.986816,15.19154052,.0001887,97.4457,195.8973,94.3019,265.8431,0,U,36605,999,88972,.21566E-4,.386E-5,0
CARTOSAT-2B,2010-035A,2026-07-11T03:50:06.351072,14.78613343,.0012483,97.9945,242.5545,110.9006,249.3543,0,U,36795,999,86339,.31419E-4,.178E-5,0
YAOGAN-10,2010-038A,2026-07-11T04:52:10.025184,14.85420889,.0001671,97.8978,215.4156,82.4199,5.0990,0,U,36834,999,86077,.80697E-4,.641E-5,0
COSMO-SKYMED 4,2010-060A,2026-07-11T04:58:42.733056,14.82147704,.0001511,97.8896,15.4599,84.2375,275.9010,0,U,37216,999,84812,.81924E-4,.6E-5,0
RESOURCESAT-2,2011-015A,2026-07-11T03:50:18.799584,14.21605302,.0011354,98.7633,259.4349,182.4342,177.6782,0,U,37387,999,78958,.2197E-4,.4E-7,0
HAIYANG-2A,2011-043A,2026-07-11T05:08:31.847136,13.73481015,.0002934,99.3402,194.3429,40.1348,320.0017,0,U,37781,999,74995,-.40204E-4,-.81E-6,0
RASAT,2011-044D,2026-07-11T05:29:40.746912,14.68190321,.0021823,98.0576,283.2593,114.5247,273.4271,0,U,37791,999,79671,.58371E-4,.288E-5,0
SRMSAT,2011-058D,2026-07-10T06:11:51.124704,14.11580397,.00118704,19.9719,279.8299,97.3618,287.0554,0,U,37841,999,76108,.48960392E-4,.355E-5,0
PLEIADES 1A,2011-076F,2026-07-11T04:59:20.666976,14.58545496,.0001718,98.1971,266.9871,82.2442,354.5419,0,U,38012,999,77549,.22319E-4,.58E-6,0
ZIYUAN 1-02C (ZY 1-02C),2011-079A,2026-07-11T05:20:13.283808,14.38233415,.0005386,98.4063,259.0276,228.4676,223.8087,0,U,38038,999,76266,.52964E-4,.118E-5,0
ARIRANG-3 (KOMPSAT-3),2012-025B,2026-07-11T04:31:28.954848,14.62226965,.0006443,98.1183,149.2362,49.3613,310.8148,0,U,38338,999,75485,.51764E-4,.214E-5,0
EXACTVIEW-1 (ADS-1B),2012-039C,2026-07-09T06:55:25.078080,14.24991160,.00119328,98.9798,308.1803,106.9299,253.3189,0,U,38709,999,72585,.48059452E-4,.66E-6,0
SPOT 6,2012-047A,2026-07-11T03:21:37.771200,14.58537025,.0001137,98.2111,259.1672,83.3658,276.7671,0,U,38755,999,73654,-.12665E-5,-.52E-6,0
PLEIADES 1B,2012-068A,2026-07-11T03:48:23.298336,14.58532511,.0001614,98.1940,266.8794,81.0864,279.0518,0,U,39019,999,72434,-.16031E-5,-.53E-6,0
GOKTURK 2,2012-073A,2026-07-11T03:42:05.071968,14.75564430,.0000915,97.6819,28.3837,81.5533,278.5780,0,U,39030,999,72804,-.17532E-4,-.166E-5,0
LANDSAT 8,2013-008A,2026-07-11T04:43:02.639712,14.57110210,.0001341,98.2291,262.0455,93.8715,266.2637,0,U,39084,999,70139,.4559E-4,.16E-5,0
SARAL,2013-009A,2026-07-11T04:50:59.807040,14.32895122,.0001458,98.5554,18.4656,177.0642,183.0551,0,U,39086,999,69904,.35688E-4,.54E-6,0
GAOFEN-1,2013-018A,2026-07-11T04:31:08.851296,14.76516266,.0016748,97.9087,263.7674,184.0140,176.0938,0,U,39150,999,71178,.38856E-4,.22E-5,0
VNREDSAT 1,2013-021B,2026-07-11T04:49:44.512896,14.64881660,.000163,97.9072,244.6944,81.4843,278.6545,0,U,39160,999,70380,.73955E-4,.35E-5,0
ARIRANG-5 (KOMPSAT-5),2013-042A,2026-07-11T04:12:46.223136,15.04520853,.0005579,97.6219,18.5395,68.4409,291.7411,0,U,39227,999,70746,.58114E-4,.753E-5,0
SKYSAT-A,2013-066C,2026-07-11T01:34:31.492128,15.13102101,.0020122,97.3805,240.7017,228.3568,131.5941,0,U,39418,999,69209,.96068E-4,.1644E-4,0
DUBAISAT-2,2013-066D,2026-07-11T04:30:15.236640,15.10357453,.0009765,97.4570,181.7064,318.0505,41.9976,0,U,39419,999,69001,.18837E-3,.3031E-4,0
GPM-CORE,2014-009C,2026-07-11T03:53:49.098912,15.45013305,.0011045,64.9698,227.8025,260.6500,99.3392,0,U,39574,999,70151,.82019E-4,.3637E-4,0
SENTINEL-1A,2014-016A,2026-07-11T03:52:56.258400,14.59199753,.0001442,98.1787,199.3444,85.0521,275.0843,0,U,39634,999,65351,.14446E-4,.22E-6,0
KAZEOSAT 1,2014-024A,2026-07-11T04:01:31.851264,14.42036085,.0001265,98.3200,264.0174,83.0801,277.0533,0,U,39731,999,64201,-.35792E-5,-.54E-6,0
ALOS-2,2014-029A,2026-07-11T01:56:55.564224,14.79474805,.0001625,97.9222,288.9034,93.1254,267.0143,0,U,39766,999,65511,.62362E-4,.414E-5,0
KAZEOSAT 2,2014-033A,2026-07-11T03:25:32.677248,14.85496305,.0007124,97.5405,30.4884,235.4314,124.6230,0,U,40010,999,65251,-.40001E-5,-.85E-6,0
